[ {
  "OBJECT_ID": "2006-008C",
  "OBJECT_NAME": "ST5-C",
  "NORAD_CAT_ID": "28982",
  "OBJECT_TYPE": "PAYLOAD",
  "PERIOD": "122.087",
  "INCLINATION": "105.5096",
  "APOGEE": "3272.544",
  "PERIGEE": "275.577",
  "ECCENTRICITY": "0.1838135",
  "MEAN_MOTION": "11.794807",
  "TLE_LINE1": "1 28982U 06008C   16238.92601597 +.00023244 +27445-5 +64778-3 0  9999",
  "TLE_LINE2": "2 28982 105.5096 174.0707 1838135 015.0719 349.8307 11.79480700108151",
  "LAUNCH_DATE": "2006-03-22",
  "LAUNCH_SITE": "Pegasus launched from Western Range Air Space",
  "OWNER": "UNITED STATES OF AMERICA",
  "ORBIT_TYPE": "Low Earth Orbit",
  "OPERATIONAL_STATUS": "Nonoperational"
}, {
  "OBJECT_ID": "2007-001D",
  "OBJECT_NAME": "PEHUENSAT 1",
  "NORAD_CAT_ID": "29712",
  "OBJECT_TYPE": "PAYLOAD",
  "PERIOD": "95.350",
  "INCLINATION": "97.5783",
  "APOGEE": "540.409",
  "PERIGEE": "530.636",
  "ECCENTRICITY": "0.0007068",
  "MEAN_MOTION": "15.10222521",
  "TLE_LINE1": "1 29712U 07001D   16239.53353342  .00003366  00000-0  20976-3 0  9993",
  "TLE_LINE2": "2 29712  97.5783 260.7527 0007068 192.7545 167.3506 15.10222521522834",
  "LAUNCH_DATE": "2007-01-10",
  "LAUNCH_SITE": "SIRHARIKOTA",
  "OWNER": "ARGENTINA",
  "ORBIT_TYPE": "Low Earth Orbit",
  "OPERATIONAL_STATUS": "Nonoperational"
}, {
  "OBJECT_ID": "2007-006B",
  "OBJECT_NAME": "MIDSTAR 1",
  "NORAD_CAT_ID": "30773",
  "OBJECT_TYPE": "PAYLOAD",
  "PERIOD": "93.246",
  "INCLINATION": "46.0646",
  "APOGEE": "435.544",
  "PERIGEE": "431.358",
  "ECCENTRICITY": "0.0003073",
  "MEAN_MOTION": "15.442952",
  "TLE_LINE1": "1 30773U 07006B   16239.46357078  .00002111  00000-0  52925-4 0  9996",
  "TLE_LINE2": "2 30773  46.0646 247.3939 0003073 119.6333  40.7465 15.44295200529390",
  "LAUNCH_DATE": "2007-03-09",
  "LAUNCH_SITE": "AIR FORCE EASTERN TEST RANGE",
  "OWNER": "UNITED STATES OF AMERICA",
  "ORBIT_TYPE": "Low Earth Orbit",
  "OPERATIONAL_STATUS": "Nonoperational"
}, {
  "OBJECT_ID": "2007-006D",
  "OBJECT_NAME": "STPSAT 1",
  "NORAD_CAT_ID": "30775",
  "OBJECT_TYPE": "PAYLOAD",
  "PERIOD": "94.512",
  "INCLINATION": "35.4287",
  "APOGEE": "496.792",
  "PERIGEE": "493.160",
  "ECCENTRICITY": "0.0002642",
  "MEAN_MOTION": "15.23605968",
  "TLE_LINE1": "1 30775U 07006D   16239.26027052  .00001818  00000-0  76231-4 0  9991",
  "TLE_LINE2": "2 30775  35.4287 180.9544 0002642 205.0339 155.0255 15.23605968522524",
  "LAUNCH_DATE": "2007-03-09",
  "LAUNCH_SITE": "AIR FORCE EASTERN TEST RANGE",
  "OWNER": "UNITED STATES OF AMERICA",
  "ORBIT_TYPE": "Low Earth Orbit",
  "OPERATIONAL_STATUS": "Nonoperational"
}, {
  "OBJECT_ID": "2007-012A",
  "OBJECT_NAME": "EGYPTSAT 1",
  "NORAD_CAT_ID": "31117",
  "OBJECT_TYPE": "PAYLOAD",
  "PERIOD": "97.786",
  "INCLINATION": "97.7014",
  "APOGEE": "657.694",
  "PERIGEE": "647.863",
  "ECCENTRICITY": "0.0006991",
  "MEAN_MOTION": "14.72600889",
  "TLE_LINE1": "1 31117U 07012A   16239.52533180  .00000260  00000-0  48136-4 0  9995",
  "TLE_LINE2": "2 31117  97.7014 260.5154 0006991 111.9782 248.2173 14.72600889502582",
  "LAUNCH_DATE": "2007-04-17",
  "LAUNCH_SITE": "TYURATAM MISSILE AND SPACE COMPLEX",
  "OWNER": "EGYPT",
  "ORBIT_TYPE": "Low Earth Orbit",
  "OPERATIONAL_STATUS": "Nonoperational"
}, {
  "OBJECT_ID": "2007-012F",
  "OBJECT_NAME": "CSTB 1",
  "NORAD_CAT_ID": "31122",
  "OBJECT_TYPE": "PAYLOAD",
  "PERIOD": "98.610",
  "INCLINATION": "97.9794",
  "APOGEE": "747.684",
  "PERIGEE": "636.742",
  "ECCENTRICITY": "0.0078456",
  "MEAN_MOTION": "14.60298089",
  "TLE_LINE1": "1 31122U 07012F   16239.44773153  .00000302  00000-0  69737-4 0  9995",
  "TLE_LINE2": "2 31122  97.9794 202.4840 0078456 334.1904  25.5391 14.60298089497776",
  "LAUNCH_DATE": "2007-04-17",
  "LAUNCH_SITE": "TYURATAM MISSILE AND SPACE COMPLEX",
  "OWNER": "UNITED STATES OF AMERICA",
  "ORBIT_TYPE": "Low Earth Orbit",
  "OPERATIONAL_STATUS": "Nonoperational"
}, {
  "OBJECT_ID": "2007-012K",
  "OBJECT_NAME": "MAST",
  "NORAD_CAT_ID": "31126",
  "OBJECT_TYPE": "PAYLOAD",
  "PERIOD": "98.873",
  "INCLINATION": "98.0186",
  "APOGEE": "769.277",
  "PERIGEE": "640.311",
  "ECCENTRICITY": "0.009104",
  "MEAN_MOTION": "14.56409199",
  "TLE_LINE1": "1 31126U 07012K   16238.88282862 +.00000150 +00000-0 +42076-4 0  9996",
  "TLE_LINE2": "2 31126 098.0186 193.8022 0091040 018.3779 342.0673 14.56409199496845",
  "LAUNCH_DATE": "2007-04-17",
  "LAUNCH_SITE": "TYURATAM MISSILE AND SPACE COMPLEX",
  "OWNER": "UNITED STATES OF AMERICA",
  "ORBIT_TYPE": "Low Earth Orbit",
  "OPERATIONAL_STATUS": "Nonoperational"
}, {
  "OBJECT_ID": "2007-012M",
  "OBJECT_NAME": "LIBERTAD 1",
  "NORAD_CAT_ID": "31128",
  "OBJECT_TYPE": "PAYLOAD",
  "PERIOD": "98.921",
  "INCLINATION": "98.0399",
  "APOGEE": "776.575",
  "PERIGEE": "637.608",
  "ECCENTRICITY": "0.0098068",
  "MEAN_MOTION": "14.55700873",
  "TLE_LINE1": "1 31128U 07012M   16239.08681981  .00000189  00000-0  50765-4 0  9992",
  "TLE_LINE2": "2 31128  98.0399 191.5954 0098068  40.6370 320.2094 14.55700873496492",
  "LAUNCH_DATE": "2007-04-17",
  "LAUNCH_SITE": "TYURATAM MISSILE AND SPACE COMPLEX",
  "OWNER": "COLOMBIA",
  "ORBIT_TYPE": "Low Earth Orbit",
  "OPERATIONAL_STATUS": "Nonoperational"
}, {
  "OBJECT_ID": "2007-012N",
  "OBJECT_NAME": "CP3",
  "NORAD_CAT_ID": "31129",
  "OBJECT_TYPE": "PAYLOAD",
  "PERIOD": "98.878",
  "INCLINATION": "98.0372",
  "APOGEE": "773.628",
  "PERIGEE": "636.452",
  "ECCENTRICITY": "0.0096832",
  "MEAN_MOTION": "14.563332",
  "TLE_LINE1": "1 31129U 07012N   16239.40265700  .00000246  00000-0  62318-4 0  9997",
  "TLE_LINE2": "2 31129  98.0372 192.9506 0096832  35.4710 325.2876 14.56333200496590",
  "LAUNCH_DATE": "2007-04-17",
  "LAUNCH_SITE": "TYURATAM MISSILE AND SPACE COMPLEX",
  "OWNER": "UNITED STATES OF AMERICA",
  "ORBIT_TYPE": "Low Earth Orbit",
  "OPERATIONAL_STATUS": "Nonoperational"
}, {
  "OBJECT_ID": "2007-012P",
  "OBJECT_NAME": "CAPE 1",
  "NORAD_CAT_ID": "31130",
  "OBJECT_TYPE": "PAYLOAD",
  "PERIOD": "98.902",
  "INCLINATION": "98.0389",
  "APOGEE": "775.371",
  "PERIGEE": "637.049",
  "ECCENTRICITY": "0.0097625",
  "MEAN_MOTION": "14.55972493",
  "TLE_LINE1": "1 31130U 07012P   16239.43092587  .00000223  00000-0  57807-4 0  9995",
  "TLE_LINE2": "2 31130  98.0389 192.3130 0097625  38.0946 322.7102 14.55972493496358",
  "LAUNCH_DATE": "2007-04-17",
  "LAUNCH_SITE": "TYURATAM MISSILE AND SPACE COMPLEX",
  "OWNER": "UNITED STATES OF AMERICA",
  "ORBIT_TYPE": "Low Earth Orbit",
  "OPERATIONAL_STATUS": "Nonoperational"
}, {
  "OBJECT_ID": "2007-012Q",
  "OBJECT_NAME": "CP4",
  "NORAD_CAT_ID": "31132",
  "OBJECT_TYPE": "PAYLOAD",
  "PERIOD": "98.718",
  "INCLINATION": "97.9859",
  "APOGEE": "754.523",
  "PERIGEE": "640.311",
  "ECCENTRICITY": "0.0080709",
  "MEAN_MOTION": "14.58687271",
  "TLE_LINE1": "1 31132U 07012Q   16239.42479274  .00000190  00000-0  48879-4 0  9990",
  "TLE_LINE2": "2 31132  97.9859 199.7196 0080709 342.4746  17.3671 14.58687271497470",
  "LAUNCH_DATE": "2007-04-17",
  "LAUNCH_SITE": "TYURATAM MISSILE AND SPACE COMPLEX",
  "OWNER": "UNITED STATES OF AMERICA",
  "ORBIT_TYPE": "Low Earth Orbit",
  "OPERATIONAL_STATUS": "Nonoperational"
}, {
  "OBJECT_ID": "2007-012R",
  "OBJECT_NAME": "AEROCUBE 2",
  "NORAD_CAT_ID": "31133",
  "OBJECT_TYPE": "PAYLOAD",
  "PERIOD": "98.717",
  "INCLINATION": "97.9858",
  "APOGEE": "754.500",
  "PERIGEE": "640.214",
  "ECCENTRICITY": "0.0080762",
  "MEAN_MOTION": "14.58705872",
  "TLE_LINE1": "1 31133U 07012R   16238.88018090 +.00000200 +00000-0 +50900-4 0  9995",
  "TLE_LINE2": "2 31133 097.9858 199.1913 0080762 344.2065 015.6618 14.58705872497407",
  "LAUNCH_DATE": "2007-04-17",
  "LAUNCH_SITE": "TYURATAM MISSILE AND SPACE COMPLEX",
  "OWNER": "UNITED STATES OF AMERICA",
  "ORBIT_TYPE": "Low Earth Orbit",
  "OPERATIONAL_STATUS": "Nonoperational"
}, {
  "OBJECT_ID": "2007-038A",
  "OBJECT_NAME": "COSMOS 2429",
  "NORAD_CAT_ID": "32052",
  "OBJECT_TYPE": "PAYLOAD",
  "PERIOD": "104.736",
  "INCLINATION": "82.9835",
  "APOGEE": "1010.919",
  "PERIGEE": "953.321",
  "ECCENTRICITY": "0.0039128",
  "MEAN_MOTION": "13.74875681",
  "TLE_LINE1": "1 32052U 07038A   16238.75745508  .00000023  00000-0  81361-5 0  9990",
  "TLE_LINE2": "2 32052  82.9835 325.4007 0039128 155.6092 204.6927 13.74875681449457",
  "LAUNCH_DATE": "2007-09-11",
  "LAUNCH_SITE": "PLESETSK MISSILE AND SPACE COMPLEX",
  "OWNER": "COMMONWEALTH OF INDEPENDENT STATES",
  "ORBIT_TYPE": "Low Earth Orbit",
  "OPERATIONAL_STATUS": "Nonoperational"
}, {
  "OBJECT_ID": "2007-042A",
  "OBJECT_NAME": "CBERS 2B",
  "NORAD_CAT_ID": "32062",
  "OBJECT_TYPE": "PAYLOAD",
  "PERIOD": "100.029",
  "INCLINATION": "98.1825",
  "APOGEE": "782.504",
  "PERIGEE": "737.325",
  "ECCENTRICITY": "0.0031647",
  "MEAN_MOTION": "14.39572006",
  "TLE_LINE1": "1 32062U 07042A   16239.44347900 -.00000020  00000-0  68605-5 0  9991",
  "TLE_LINE2": "2 32062  98.1825 281.8582 0031647 354.0666   6.0150 14.39572006469247",
  "LAUNCH_DATE": "2007-09-19",
  "LAUNCH_SITE": "Taiyaun Space Center, China",
  "OWNER": "PEOPLES REPUBLIC OF CHINA/BRAZIL",
  "ORBIT_TYPE": "Low Earth Orbit",
  "OPERATIONAL_STATUS": "Nonoperational"
}, {
  "OBJECT_ID": "2007-048D",
  "OBJECT_NAME": "GLOBALSTAR M068",
  "NORAD_CAT_ID": "32266",
  "OBJECT_TYPE": "PAYLOAD",
  "PERIOD": "114.043",
  "INCLINATION": "51.9899",
  "APOGEE": "1412.587",
  "PERIGEE": "1411.224",
  "ECCENTRICITY": "8.75e-05",
  "MEAN_MOTION": "12.62679537",
  "TLE_LINE1": "1 32266U 07048D   16239.44960291 -.00000103  00000-0  55823-5 0  9997",
  "TLE_LINE2": "2 32266  51.9899  26.3085 0000875 148.1168 248.4183 12.62679537411469",
  "LAUNCH_DATE": "2007-10-20",
  "LAUNCH_SITE": "TYURATAM MISSILE AND SPACE COMPLEX",
  "OWNER": "GLOBALSTAR",
  "ORBIT_TYPE": "Low Earth Orbit",
  "OPERATIONAL_STATUS": "Nonoperational"
}]